{
  "norad_id": 62898,
  "name": "STARLINK-32902",
  "history": [
    {
      "epoch": "2026-04-14T17:42:41.306976Z",
      "apogee_km": 484.03718697698787,
      "perigee_km": 482.1969986292979,
      "latitude_deg": -2.098766612473469e-05,
      "longitude_deg": 12.797768276691665,
      "height_km": 482.73213709221625,
      "semi_major_axis_km": 6861.254092803143,
      "eccentricity": 0.0001341,
      "inclination_deg": 43.0015,
      "raan_deg": 121.38,
      "arg_perigee_deg": 280.1273,
      "mean_anomaly_deg": 79.9427,
      "mean_motion_rev_day": 15.27557292
    },
    {
      "epoch": "2026-04-15T17:15:01.290816Z",
      "apogee_km": 483.8051211070715,
      "perigee_km": 482.0486887474108,
      "latitude_deg": -1.4351419599719632e-05,
      "longitude_deg": 13.208103556391908,
      "height_km": 482.65256778858503,
      "semi_major_axis_km": 6861.063904927241,
      "eccentricity": 0.000128,
      "inclination_deg": 43.0023,
      "raan_deg": 115.8403,
      "arg_perigee_deg": 273.3421,
      "mean_anomaly_deg": 86.7284,
      "mean_motion_rev_day": 15.27620808
    },
    {
      "epoch": "2026-04-16T16:47:19.988160Z",
      "apogee_km": 483.63767591322267,
      "perigee_km": 482.27094652402866,
      "latitude_deg": -3.6092240312941644e-05,
      "longitude_deg": 13.622483697759234,
      "height_km": 482.54866269642315,
      "semi_major_axis_km": 6861.091311218625,
      "eccentricity": 9.96e-05,
      "inclination_deg": 42.9984,
      "raan_deg": 110.2993,
      "arg_perigee_deg": 285.4304,
      "mean_anomaly_deg": 74.6437,
      "mean_motion_rev_day": 15.27611655
    },
    {
      "epoch": "2026-04-17T16:19:41.702592Z",
      "apogee_km": 484.14268102660026,
      "perigee_km": 482.0294243263761,
      "latitude_deg": -1.7040064690704155e-06,
      "longitude_deg": 14.027617554100114,
      "height_km": 482.7065142660603,
      "semi_major_axis_km": 6861.223052676488,
      "eccentricity": 0.000154,
      "inclination_deg": 42.9996,
      "raan_deg": 104.7616,
      "arg_perigee_deg": 278.5077,
      "mean_anomaly_deg": 81.56,
      "mean_motion_rev_day": 15.27567658
    },
    {
      "epoch": "2026-04-18T15:52:02.459712Z",
      "apogee_km": 483.96594637713406,
      "perigee_km": 482.0118977145348,
      "latitude_deg": 2.7571468584949794e-05,
      "longitude_deg": 14.432744685241376,
      "height_km": 482.5452775646172,
      "semi_major_axis_km": 6861.125922045834,
      "eccentricity": 0.0001424,
      "inclination_deg": 43.0006,
      "raan_deg": 99.2199,
      "arg_perigee_deg": 283.0389,
      "mean_anomaly_deg": 77.0304,
      "mean_motion_rev_day": 15.27600096
    },
    {
      "epoch": "2026-04-19T15:24:23.452704Z",
      "apogee_km": 483.7640118007448,
      "perigee_km": 482.3053267038631,
      "latitude_deg": -5.523196347899511e-07,
      "longitude_deg": 14.839223939148384,
      "height_km": 482.10559103628,
      "semi_major_axis_km": 6861.171669252304,
      "eccentricity": 0.0001063,
      "inclination_deg": 42.9983,
      "raan_deg": 93.6806,
      "arg_perigee_deg": 345.0547,
      "mean_anomaly_deg": 15.0273,
      "mean_motion_rev_day": 15.27584818
    },
    {
      "epoch": "2026-04-20T07:05:57.634944Z",
      "apogee_km": 483.9428585313681,
      "perigee_km": 482.23702028969274,
      "latitude_deg": 1.1234778517077349e-05,
      "longitude_deg": 135.11252784291415,
      "height_km": 482.9962122094337,
      "semi_major_axis_km": 6861.226939410531,
      "eccentricity": 0.00012431,
      "inclination_deg": 43.0009,
      "raan_deg": 89.9908,
      "arg_perigee_deg": 261.2579,
      "mean_anomaly_deg": 98.8132,
      "mean_motion_rev_day": 15.2756636
    },
    {
      "epoch": "2026-04-21T19:11:33.673056Z",
      "apogee_km": 483.37902057331667,
      "perigee_km": 482.62017886538797,
      "latitude_deg": 7.766969890172813e-07,
      "longitude_deg": -56.26204672423129,
      "height_km": 482.6038128386889,
      "semi_major_axis_km": 6861.136599719352,
      "eccentricity": 5.53e-05,
      "inclination_deg": 42.9973,
      "raan_deg": 81.4987,
      "arg_perigee_deg": 296.856,
      "mean_anomaly_deg": 63.2235,
      "mean_motion_rev_day": 15.2759653
    },
    {
      "epoch": "2026-04-22T14:01:26.652000Z",
      "apogee_km": 483.83566580100523,
      "perigee_km": 482.2534773306015,
      "latitude_deg": -7.327321947289112e-06,
      "longitude_deg": 16.063119667778636,
      "height_km": 482.0729514388459,
      "semi_major_axis_km": 6861.181571565803,
      "eccentricity": 0.0001153,
      "inclination_deg": 42.9986,
      "raan_deg": 77.068,
      "arg_perigee_deg": 19.3122,
      "mean_anomaly_deg": 340.7773,
      "mean_motion_rev_day": 15.27581511
    },
    {
      "epoch": "2026-04-23T13:33:46.993536Z",
      "apogee_km": 483.9948903012337,
      "perigee_km": 482.080622544192,
      "latitude_deg": -2.607069517203182e-06,
      "longitude_deg": 16.471154575656914,
      "height_km": 482.871611605226,
      "semi_major_axis_km": 6861.174756422713,
      "eccentricity": 0.0001395,
      "inclination_deg": 43.0,
      "raan_deg": 71.5275,
      "arg_perigee_deg": 266.5758,
      "mean_anomaly_deg": 93.4934,
      "mean_motion_rev_day": 15.27583787
    },
    {
      "epoch": "2026-04-24T20:56:54.279744Z",
      "apogee_km": 483.86651229819927,
      "perigee_km": 482.118296525955,
      "latitude_deg": -1.2034496151006334e-05,
      "longitude_deg": -102.98476706125071,
      "height_km": 482.9315612474064,
      "semi_major_axis_km": 6861.129404412077,
      "eccentricity": 0.0001274,
      "inclination_deg": 42.9986,
      "raan_deg": 64.1409,
      "arg_perigee_deg": 259.2689,
      "mean_anomaly_deg": 100.8019,
      "mean_motion_rev_day": 15.27598933
    },
    {
      "epoch": "2026-04-25T04:47:41.138016Z",
      "apogee_km": 483.978854496504,
      "perigee_km": 482.00833778929155,
      "latitude_deg": 4.6245308249370373e-05,
      "longitude_deg": 137.15181404074738,
      "height_km": 482.9647963294517,
      "semi_major_axis_km": 6861.130596142898,
      "eccentricity": 0.0001436,
      "inclination_deg": 43.0,
      "raan_deg": 62.2949,
      "arg_perigee_deg": 258.6129,
      "mean_anomaly_deg": 101.4562,
      "mean_motion_rev_day": 15.27598535
    },
    {
      "epoch": "2026-04-26T05:54:11.219616Z",
      "apogee_km": 484.02020348118185,
      "perigee_km": 481.98244539882216,
      "latitude_deg": -1.8096100584810325e-05,
      "longitude_deg": 113.58814197490399,
      "height_km": 482.8771359304414,
      "semi_major_axis_km": 6861.138324440001,
      "eccentricity": 0.0001485,
      "inclination_deg": 43.0004,
      "raan_deg": 56.3878,
      "arg_perigee_deg": 264.4232,
      "mean_anomaly_deg": 95.645,
      "mean_motion_rev_day": 15.27595954
    },
    {
      "epoch": "2026-04-27T19:33:57.735648Z",
      "apogee_km": 484.8970540396349,
      "perigee_km": 481.1412571600604,
      "latitude_deg": -3.241568197708317e-06,
      "longitude_deg": -101.76501910346131,
      "height_km": 482.5807375098958,
      "semi_major_axis_km": 6861.156155599848,
      "eccentricity": 0.0002737,
      "inclination_deg": 43.0022,
      "raan_deg": 47.5252,
      "arg_perigee_deg": 276.6162,
      "mean_anomaly_deg": 83.4378,
      "mean_motion_rev_day": 15.27589999
    },
    {
      "epoch": "2026-04-28T19:06:17.830080Z",
      "apogee_km": 483.72991087553237,
      "perigee_km": 482.19165275285013,
      "latitude_deg": -1.314886513458773e-05,
      "longitude_deg": -101.35536464716435,
      "height_km": 482.75851500498095,
      "semi_major_axis_km": 6861.097781814191,
      "eccentricity": 0.0001121,
      "inclination_deg": 42.9993,
      "raan_deg": 41.9853,
      "arg_perigee_deg": 268.4093,
      "mean_anomaly_deg": 91.663,
      "mean_motion_rev_day": 15.27609494
    },
    {
      "epoch": "2026-04-29T18:38:38.746176Z",
      "apogee_km": 484.11838994006666,
      "perigee_km": 481.8830312739501,
      "latitude_deg": -4.289282470632406e-05,
      "longitude_deg": -100.94606468860525,
      "height_km": 482.8707727093783,
      "semi_major_axis_km": 6861.137710607008,
      "eccentricity": 0.0001629,
      "inclination_deg": 43.0018,
      "raan_deg": 36.4485,
      "arg_perigee_deg": 265.2276,
      "mean_anomaly_deg": 94.8389,
      "mean_motion_rev_day": 15.27596159
    },
    {
      "epoch": "2026-04-30T04:03:34.857216Z",
      "apogee_km": 484.08016493440937,
      "perigee_km": 481.9123212749173,
      "latitude_deg": 1.3923182061097188e-05,
      "longitude_deg": 115.2176154826755,
      "height_km": 482.89595846294327,
      "semi_major_axis_km": 6861.133243104663,
      "eccentricity": 0.00015798,
      "inclination_deg": 43.0026,
      "raan_deg": 34.2326,
      "arg_perigee_deg": 263.5052,
      "mean_anomaly_deg": 96.562,
      "mean_motion_rev_day": 15.27597651
    },
    {
      "epoch": "2026-05-02T03:08:15.783936Z",
      "apogee_km": 483.9158520795454,
      "perigee_km": 481.93300532665035,
      "latitude_deg": -1.8393502596429296e-05,
      "longitude_deg": 116.03872479391048,
      "height_km": 482.6521232261688,
      "semi_major_axis_km": 6861.061428703098,
      "eccentricity": 0.0001445,
      "inclination_deg": 43.0029,
      "raan_deg": 23.1577,
      "arg_perigee_deg": 272.8544,
      "mean_anomaly_deg": 87.2142,
      "mean_motion_rev_day": 15.27621635
    },
    {
      "epoch": "2026-05-03T16:48:02.547072Z",
      "apogee_km": 484.5016254896109,
      "perigee_km": 481.5430935737804,
      "latitude_deg": -1.2680023187497765e-05,
      "longitude_deg": -99.31688358535558,
      "height_km": 482.5846444606581,
      "semi_major_axis_km": 6861.159359531695,
      "eccentricity": 0.0002156,
      "inclination_deg": 43.0033,
      "raan_deg": 14.2937,
      "arg_perigee_deg": 278.3722,
      "mean_anomaly_deg": 81.6885,
      "mean_motion_rev_day": 15.27588929
    }
  ]
}